STARLINK-30790          
1 58127U 23162K   24288.02172512  .00004309  00000+0  33409-3 0  9998
2 58127  43.0037  33.1968 0000832 266.2998  93.7749 15.02512854 55335
STARLINK-30787          
1 58128U 23162L   24288.55020690  .00005956  00000+0  45539-3 0  9992
2 58128  43.0020  30.2828 0000891 272.5105  87.5635 15.02552852 55412
STARLINK-30756          
1 58129U 23162M   24287.98186828  .00007441  00000+0  56508-3 0  9994
2 58129  43.0041  33.7477 0001476 279.5701  80.4975 15.02554769 55310
STARLINK-30783          
1 58130U 23162N   24288.01505714  .00009273  00000+0  70101-3 0  9990
2 58130  42.9974  33.1464 0000904 262.0306  98.0434 15.02514910 55328
STARLINK-30757          
1 58131U 23162P   24288.14468860  .00004223  00000+0  32765-3 0  9999
2 58131  43.0024  32.4012 0000570 287.1149  72.9631 15.02520747 55314
STARLINK-30770          
1 58132U 23162Q   24288.57684417  .00005266  00000+0  40468-3 0  9992
2 58132  43.0019  30.4671 0000587 251.8009 108.2770 15.02530015 55416
STARLINK-30758          
1 58133U 23162R   24287.61176782  .00017942  00000+0  13395-2 0  9990
2 58133  43.0022  35.2801 0001184 285.2529  74.8183 15.02546692 55280
STARLINK-30761          
1 58134U 23162S   24288.57350794  .00006518  00000+0  49698-3 0  9997
2 58134  43.0020  30.4397 0000984 242.8528 117.2214 15.02544523 55414
STARLINK-30772          
1 58135U 23162T   24288.00850829  .00007079  00000+0  53855-3 0  9993
2 58135  42.9998  33.9434 0000519 294.7623  65.3166 15.02537229 55237
STARLINK-30776          
1 58136U 23162U   24288.00518521  .00000178  00000+0  28205-4 0  9999
2 58136  43.0009  33.8997 0000104 159.1795 200.9052 15.02550122 55328
STARLINK-30782          
1 58137U 23162V   24287.60299621  .00016949  00000+0  12662-2 0  9993
2 58137  43.0030  36.0617 0001858 277.7629  82.3003 15.02550997 55268
STARLINK-30769          
1 58138U 23162W   24287.99517875  .00001543  00000+0  12923-3 0  9995
2 58138  43.0040  33.8450 0001708 275.8814  84.1834 15.02546038 54115
STARLINK-30775          
1 58139U 23162X   24288.33091341  .00005080  00000+0  39084-3 0  9997
2 58139  43.0052  32.0630 0001408 258.0804 101.9881 15.02537003 55370
STARLINK-30780          
1 58140U 23162Y   24287.99187381  .00009504  00000+0  71768-3 0  9990
2 58140  43.0004  33.8191 0000920 276.5640  83.5098 15.02533358 54116
STARLINK-30802          
1 58150U 23166A   24287.74456119  .00007018  00000+0  24909-3 0  9999
2 58150  53.1609  77.8576 0000865  68.4519 291.6574 15.30166206 54796
STARLINK-30834          
1 58151U 23166B   24288.40190423  .00001902  00000+0  76369-4 0  9991
2 58151  53.1612  74.6459 0001453  98.4131 261.7035 15.30181787 54895
STARLINK-30833          
1 58152U 23166C   24287.74244735  .00000253  00000+0  20669-4 0  9994
2 58152  53.1607  77.8411 0001333  89.6077 270.5076 15.30186921 54798
STARLINK-30831          
1 58153U 23166D   24287.85620782  .00001157  00000+0  51205-4 0  9991
2 58153  53.1604  77.1479 0000993  83.1325 276.9788 15.30181720 54814
STARLINK-30797          
1 58154U 23166E   24288.40505559  .00005206  00000+0  18770-3 0  9996
2 58154  53.1602  74.6582 0000467  59.5051 300.5996 15.30211106 54670
STARLINK-30804          
1 58155U 23166F   24287.73612233  .00006700  00000+0  23836-3 0  9999
2 58155  53.1605  77.8172 0001290 117.6945 242.4187 15.30169521 54799
STARLINK-30784          
1 58156U 23166G   24288.39877017  .00000609  00000+0  32702-4 0  9991
2 58156  53.1597  74.8324 0001042  99.6193 260.4926 15.30186802 54731
STARLINK-30803          
1 58157U 23166H   24287.85300374 -.00002381  00000+0 -68227-4 0  9991
2 58157  53.1593  77.1089 0000995 105.3469 254.7642 15.30235379 54666
STARLINK-30829          
1 58158U 23166J   24287.73929285  .00005275  00000+0  19027-3 0  9993
2 58158  53.1606  77.8350 0001289 120.3666 239.7462 15.30171978 54794
STARLINK-30788          
1 58159U 23166K   24287.73294778  .00004057  00000+0  14909-3 0  9997
2 58159  53.1594  77.7974 0001383 149.5494 210.5587 15.30187853 54647
STARLINK-30779          
1 58160U 23166L   24287.66342673  .00003353  00000+0  12542-3 0  9998
2 58160  53.1599  78.0719 0000911  86.5154 273.5951 15.30164022 54786
STARLINK-30773          
1 58161U 23166M   24287.71288182 -.00001611  00000+0 -42234-4 0  9998
2 58161  53.1598  77.6533 0000870  79.7950 280.3149 15.30226620 54796
STARLINK-30816          
1 58162U 23166N   24287.70973566  .00004597  00000+0  16734-3 0  9994
2 58162  53.1606  77.6550 0001110  43.4603 316.6485 15.30181047 54808
STARLINK-30763          
1 58163U 23166P   24287.69917078  .00003869  00000+0  12628-3 0  9998
2 58163  53.1592  72.0955 0000657  57.2729 302.8337 15.34214114 54863
STARLINK-30815          
1 58164U 23166Q   24287.84988820  .00006039  00000+0  21620-3 0  9993
2 58164  53.1594  77.1071 0001556  89.3769 270.7410 15.30149614 54818
STARLINK-30814          
1 58165U 23166R   24287.68967520  .00001842  00000+0  74304-4 0  9995
2 58165  53.1600  77.5292 0001207  52.2151 307.8958 15.30202814 54791
STARLINK-30789          
1 58166U 23166S   24287.78139034  .00003650  00000+0  13544-3 0  9995
2 58166  53.1603  77.3923 0001006  65.1784 294.9322 15.30164489 54804
STARLINK-30811          
1 58167U 23166T   24287.69601772  .00008546  00000+0  30050-3 0  9999
2 58167  53.1603  77.5706 0001424  55.1343 304.9792 15.30180755 54649
STARLINK-30812          
1 58168U 23166U   24287.69284743  .00005825  00000+0  20876-3 0  9997
2 58168  53.1604  77.5567 0000998  89.5909 270.5206 15.30179078 54644
STARLINK-30771          
1 58169U 23166V   24287.83722013  .00001496  00000+0  62698-4 0  9990
2 58169  53.1584  77.0289 0001383  51.5055 308.6069 15.30168957 54811
STARLINK-30764          
1 58170U 23166W   24287.83403099  .00007065  00000+0  25058-3 0  9998
2 58170  53.1605  77.0096 0001427  87.1361 272.9803 15.30179068 54811
STARLINK-30752          
1 58171U 23166X   24287.70023512 -.00002674  00000+0 -78155-4 0  9993
2 58171  53.1586  77.5904 0001233  36.6150 323.4935 15.30206665 54792
STARLINK-30753          
1 58175U 23167A   24288.50782174  .00005280  00000+0  40547-3 0  9990
2 58175  43.0025  43.2733 0001477 246.2868 113.7819 15.02554331 54018
STARLINK-30824          
1 58176U 23167B   24287.77545406  .00003803  00000+0  29635-3 0  9998
2 58176  43.0038  47.2404 0000800 212.0452 148.0341 15.02544811 53956
STARLINK-30791          
1 58177U 23167C   24287.79211155  .00008809  00000+0  66649-3 0  9999
2 58177  42.9981  47.3452 0000368 207.0175 153.0648 15.02528608 53953
STARLINK-30810          
1 58178U 23167D   24288.50016750  .00003137  00000+0  24725-3 0  9992
2 58178  43.0037  44.0633 0000966 270.5892  89.4839 15.02525245 54003
STARLINK-30819          
1 58179U 23167E   24288.03149712  .00010468  00000+0  78866-3 0  9996
2 58179  43.0016  46.5646 0001224 261.8530  98.2173 15.02542703 53985
STARLINK-30806          
1 58180U 23167F   24288.36053388  .00012118  00000+0  91008-3 0  9994
2 58180  43.0022  44.7326 0001904 251.1007 108.9629 15.02555643 53987
STARLINK-30821          
1 58181U 23167G   24288.05468583  .00009731  00000+0  73425-3 0  9998
2 58181  43.0017  45.8744 0001550 235.3587 124.7109 15.02543381 53943
STARLINK-30778          
1 58182U 23167H   24288.31726412  .00008747  00000+0  66177-3 0  9998
2 58182  43.0034  44.4066 0001458 248.8859 111.1827 15.02535646 53989
STARLINK-30809          
1 58183U 23167J   24288.02477600  .00007533  00000+0  57156-3 0  9998
2 58183  43.0058  46.5147 0002215 265.1623  94.8966 15.02571995 53935
STARLINK-30801          
1 58184U 23167K   24288.35387068 -.00002911  00000+0 -20039-3 0  9990
2 58184  43.0034  44.6844 0001637 275.0698  84.9958 15.02550531 53981
STARLINK-30793          
1 58185U 23167L   24288.04801418 -.00001392  00000+0 -87947-4 0  9991
2 58185  43.0021  45.8258 0001783 279.8806  80.1835 15.02557305 53949
STARLINK-30755          
1 58186U 23167M   24288.34498206 -.00004135  00000+0 -29088-3 0  9991
2 58186  43.0030  44.6155 0001975 263.2808  96.7809 15.02570664 53986
STARLINK-30760          
1 58187U 23167N   24287.77879174  .00018402  00000+0  13737-2 0  9998
2 58187  43.0004  47.2454 0001493 243.6633 116.4056 15.02537675 53958
STARLINK-30826          
1 58188U 23167P   24288.34389304  .00005599  00000+0  42932-3 0  9997
2 58188  43.0029  44.6048 0000983 233.9748 126.1004 15.02528121 53988
STARLINK-30796          
1 58189U 23167Q   24288.34723776  .00004694  00000+0  36245-3 0  9998
2 58189  43.0041  44.6272 0000946 255.9720 104.1017 15.02522082 53985
STARLINK-30820          
1 58190U 23167R   24288.01816271  .00006353  00000+0  48508-3 0  9996
2 58190  43.0025  46.4587 0001427 276.5032  83.5648 15.02527050 53988
STARLINK-30785          
1 58191U 23167S   24287.73894058  .00001317  00000+0  11251-3 0  9994
2 58191  43.0022  47.8082 0000685 230.2703 129.8079 15.02541822 53949
STARLINK-30807          
1 58192U 23167T   24287.74228193  .00013720  00000+0  10285-2 0  9993
2 58192  43.0011  47.8328 0000794 224.8537 135.2241 15.02545398 53940
STARLINK-30822          
1 58193U 23167U   24287.73562130  .00015666  00000+0  11719-2 0  9999
2 58193  43.0023  47.7830 0001278 254.7515 105.3186 15.02545781 53949
STARLINK-30830          
1 58194U 23167V   24287.59821344  .00009656  00000+0  72895-3 0  9994
2 58194  43.0012  48.4479 0001079 238.4954 121.5783 15.02532327 53923
STARLINK-30827          
1 58195U 23167W   24287.66251026  .00028085  00000+0  20882-2 0  9992
2 58195  43.0028  48.0969 0000316 225.0106 135.0711 15.02492919 53939
STARLINK-30798          
1 58196U 23167X   24288.03812562 -.00005827  00000+0 -41630-3 0  9999
2 58196  43.0046  46.6106 0002040 279.7806  80.2806 15.02565288 53932
STARLINK-30762          
1 58197U 23167Y   24288.39704498  .00004953  00000+0  38160-3 0  9998
2 58197  43.0056  44.1437 0002282 259.6654 100.3931 15.02525096 53992
